STARLINK-2022           
1 47643U 21012Z   24190.48876718  .00001715  00000+0  13401-3 0  9990
2 47643  53.0542 266.4268 0001385  95.0395 265.0753 15.06398740187925
